[ {"name": "STARLINK-5782", "line1": "1 56034U 23042BA  26187.11113690 -.00001434  00000+0 -42577-4 0  9997", "line2": "2 56034  43.0019  96.6814 0002184 275.6587  84.4016 15.27578436181142"}, {"name": "STARLINK-5792", "line1": "1 56035U 23042BB  26187.15854890 -.00001051  00000+0 -28686-4 0  9996", "line2": "2 56035  43.0025  96.1812 0001227 265.3028  94.7684 15.27570484181157"}, {"name": "STARLINK-5790", "line1": "1 56036U 23042BC  26187.10215828 -.00001843  00000+0 -57491-4 0  9999", "line2": "2 56036  43.0020  96.6012 0001170 238.5503 121.5235 15.27566069181141"}, {"name": "STARLINK-5758", "line1": "1 56037U 23042BD  26187.11421384 -.00001098  00000+0 -30377-4 0  9993", "line2": "2 56037  43.0037  81.9503 0001542 268.8959  91.1716 15.27566204181312"}, {"name": "STARLINK-5793", "line1": "1 56038U 23042BE  26186.79192910 -.00000380  00000+0 -43062-5 0  9996", "line2": "2 56038  43.0034  98.5819 0000691 230.1574 129.9217 15.27576054181098"}, {"name": "STARLINK-5795", "line1": "1 56039U 23042BF  26187.06682262 -.00002118  00000+0 -67505-4 0  9990", "line2": "2 56039  43.0027  82.4521 0001073 258.1437 101.9295 15.27565651181307"}, {"name": "STARLINK-5798", "line1": "1 56040U 23042BG  26187.07066257 -.00000926  00000+0 -24110-4 0  9993", "line2": "2 56040  43.0061  82.4689 0001870 260.2154  99.8486 15.27575257181307"}, {"name": "STARLINK-5800", "line1": "1 56041U 23042BH  26187.03676757 -.00001163  00000+0 -32762-4 0  9998", "line2": "2 56041  43.0057  85.6227 0001670 258.6422 101.4242 15.27566482181268"}, {"name": "STARLINK-6109", "line1": "1 56094U 23046B   26186.77732445 -.00000547  00000+0 -10372-4 0  9995", "line2": "2 56094  42.9992 214.4813 0000505 302.2587  57.8216 15.27569448180099"}, {"name": "STARLINK-6090", "line1": "1 56095U 23046C   26187.09655976 -.00002844  00000+0 -93943-4 0  9992", "line2": "2 56095  42.9998 212.5789 0000972 281.3661  78.7082 15.27559866180147"}, {"name": "STARLINK-6089", "line1": "1 56096U 23046D   26186.78117449 -.00000632  00000+0 -13433-4 0  9995", "line2": "2 56096  43.0019 214.5085 0001087 276.5665  83.5063 15.27573684180094"}, {"name": "STARLINK-6077", "line1": "1 56097U 23046E   26186.43838676 -.00002663  00000+0 -87344-4 0  9998", "line2": "2 56097  42.9992 169.3000 0000538 287.2872  72.7921 15.27561564180587"}, {"name": "STARLINK-6088", "line1": "1 56098U 23046F   26186.77346580 -.00000407  00000+0 -52640-5 0  9990", "line2": "2 56098  43.0015 214.4550 0001472 268.4635  91.6048 15.27573812180088"}, {"name": "STARLINK-6076", "line1": "1 56100U 23046H   26186.56831067 -.00000453  00000+0 -69528-5 0  9994", "line2": "2 56100  43.0005 215.4990 0001098 281.8397  78.2331 15.27573963180069"}, {"name": "STARLINK-6095", "line1": "1 56101U 23046J   26187.09528439 -.00004054  00000+0 -13793-3 0  9992", "line2": "2 56101  43.0008 212.5661 0000571 326.0222  34.0593 15.27568294180140"}, {"name": "STARLINK-6075", "line1": "1 56102U 23046K   26187.11068410 -.00001262  00000+0 -36353-4 0  9990", "line2": "2 56102  43.0006 212.6745 0000869 320.5665  39.5123 15.27566775180144"}, {"name": "STARLINK-6096", "line1": "1 56103U 23046L   26186.77603650 -.00000947  00000+0 -24890-4 0  9995", "line2": "2 56103  43.0020 214.4697 0000836 270.5816  89.4940 15.27571584180092"}, {"name": "STARLINK-6062", "line1": "1 56104U 23046M   26186.57601570 -.00001187  00000+0 -33591-4 0  9998", "line2": "2 56104  43.0018 215.5461 0001645 282.3341  77.7327 15.27583907180062"}, {"name": "STARLINK-6066", "line1": "1 56105U 23046N   26187.06970772  .00024676  00000+0  90264-3 0  9992", "line2": "2 56105  42.9989 213.2213 0001675 254.4678 105.5989 15.27600872180137"}, {"name": "STARLINK-6030", "line1": "1 56107U 23046Q   26187.07742977 -.00002399  00000+0 -77754-4 0  9999", "line2": "2 56107  43.0021 213.2810 0000982 297.4441  62.6311 15.27552020180139"}, {"name": "STARLINK-6081", "line1": "1 56108U 23046R   26187.11325227 -.00000979  00000+0 -26066-4 0  9992", "line2": "2 56108  43.0016 212.6869 0000716 276.4095  83.6675 15.27567912180141"}, {"name": "STARLINK-6083", "line1": "1 56109U 23046S   26187.13894818 -.00000964  00000+0 -25485-4 0  9990", "line2": "2 56109  43.0045 212.8837 0002149 287.3128  72.7489 15.27572588180148"}, {"name": "STARLINK-6082", "line1": "1 56110U 23046T   26187.13252902 -.00001277  00000+0 -36894-4 0  9998", "line2": "2 56110  43.0016 212.8297 0001308 275.4835  84.5867 15.27565363180141"}, {"name": "STARLINK-6084", "line1": "1 56111U 23046U   26186.56588431 -.00000242  00000+0  71348-6 0  9999", "line2": "2 56111  43.0012 216.3099 0001135 277.6412  82.4311 15.27575623180051"}, {"name": "STARLINK-6080", "line1": "1 56112U 23046V   26186.55818090  .00000186  00000+0  16296-4 0  9991", "line2": "2 56112  43.0007 216.2655 0001322 277.3395  82.7306 15.27576381180057"}, {"name": "STARLINK-6113", "line1": "1 56113U 23046W   26187.15807524  .00001345  00000+0  58412-4 0  9993", "line2": "2 56113  43.0015 212.1683 0001697 264.7987  95.2671 15.27562041180158"}, {"name": "STARLINK-6101", "line1": "1 56115U 23046Y   26187.06891202 -.00000081  00000+0  65952-5 0  9996", "line2": "2 56115  43.0016 209.8067 0001926 281.1525  78.9110 15.27575472180176"}, {"name": "STARLINK-6114", "line1": "1 56116U 23046Z   26187.08512831 -.00000073  00000+0  68709-5 0  9991", "line2": "2 56116  43.0013 213.3390 0001774 267.1758  92.8890 15.27568506180132"}, {"name": "STARLINK-6107", "line1": "1 56117U 23046AA  26187.07149941  .00000431  00000+0  25160-4 0  9999", "line2": "2 56117  42.9999 198.5658 0000392 273.5333  86.5474 15.27571555180305"}, {"name": "STARLINK-6091", "line1": "1 56119U 23046AC  26187.08562347  .00000027  00000+0  10525-4 0  9991", "line2": "2 56119  43.0026 198.6628 0001628 280.9229  79.1440 15.27579147180303"}]