OBJECT_NAME,OBJECT_ID,EPOCH,MEAN_MOTION,ECCENTRICITY,INCLINATION,RA_OF_ASC_NODE,ARG_OF_PERICENTER,MEAN_ANOMALY,EPHEMERIS_TYPE,CLASSIFICATION_TYPE,NORAD_CAT_ID,ELEMENT_SET_NO,REV_AT_EPOCH,BSTAR,MEAN_MOTION_DOT,MEAN_MOTION_DDOT
STARLINK-5782,2023-042BA,2026-07-06T02:40:02.228160,15.27578436,.00021841,43.0019,96.6814,275.6587,84.4016,0,U,56034,999,18114,-.42576647E-4,-.1434E-4,0
STARLINK-5792,2023-042BB,2026-07-06T03:48:18.624960,15.27570484,.00012277,43.0025,96.1812,265.3028,94.7684,0,U,56035,999,18115,-.286857E-4,-.1051E-4,0
STARLINK-5790,2023-042BC,2026-07-06T02:27:06.475392,15.27566069,.00011703,43.0020,96.6012,238.5503,121.5235,0,U,56036,999,18114,-.57490894E-4,-.1843E-4,0
STARLINK-5758,2023-042BD,2026-07-06T02:44:28.075776,15.27566204,.00015422,43.0037,81.9503,268.8959,91.1716,0,U,56037,999,18131,-.30377267E-4,-.1098E-4,0
STARLINK-5793,2023-042BE,2026-07-05T19:00:22.674240,15.27576054,.00006912,43.0034,98.5819,230.1574,129.9217,0,U,56038,999,18109,-.43062E-5,-.38E-5,0
STARLINK-5795,2023-042BF,2026-07-06T01:36:13.474368,15.27565651,.0001073,43.0027,82.4521,258.1437,101.9295,0,U,56039,999,18130,-.67505333E-4,-.2118E-4,0
STARLINK-5798,2023-042BG,2026-07-06T01:41:45.246048,15.27575257,.00018703,43.0061,82.4689,260.2154,99.8486,0,U,56040,999,18130,-.24110163E-4,-.926E-5,0
STARLINK-5800,2023-042BH,2026-07-06T00:52:56.718048,15.27566482,.000167,43.0057,85.6227,258.6422,101.4242,0,U,56041,999,18126,-.32761573E-4,-.1163E-4,0
STARLINK-6109,2023-046B,2026-07-05T18:39:20.832480,15.27569448,.00005056,42.9992,214.4813,302.2587,57.8216,0,U,56094,999,18009,-.10372333E-4,-.547E-5,0
STARLINK-6090,2023-046C,2026-07-06T02:19:02.763264,15.27559866,.0000972,42.9998,212.5789,281.3661,78.7082,0,U,56095,999,18014,-.93943248E-4,-.2844E-4,0
STARLINK-6089,2023-046D,2026-07-05T18:44:53.475936,15.27573684,.00010878,43.0019,214.5085,276.5665,83.5063,0,U,56096,999,18009,-.13433484E-4,-.632E-5,0
STARLINK-6077,2023-046E,2026-07-05T10:31:16.616064,15.27561564,.00005382,42.9992,169.3000,287.2872,72.7921,0,U,56097,999,18058,-.87344451E-4,-.2663E-4,0
STARLINK-6088,2023-046F,2026-07-05T18:33:47.445120,15.27573812,.00014721,43.0015,214.4550,268.4635,91.6048,0,U,56098,999,18008,-.5263984E-5,-.407E-5,0
STARLINK-6076,2023-046H,2026-07-05T13:38:22.041888,15.27573963,.0001098,43.0005,215.4990,281.8397,78.2331,0,U,56100,999,18006,-.69528E-5,-.453E-5,0
STARLINK-6095,2023-046J,2026-07-06T02:17:12.571296,15.27568294,.00005716,43.0008,212.5661,326.0222,34.0593,0,U,56101,999,18014,-.13793315E-3,-.4054E-4,0
STARLINK-6075,2023-046K,2026-07-06T02:39:23.106240,15.27566775,.00008698,43.0006,212.6745,320.5665,39.5123,0,U,56102,999,18014,-.36353205E-4,-.1262E-4,0
STARLINK-6096,2023-046L,2026-07-05T18:37:29.553600,15.27571584,.00008369,43.0020,214.4697,270.5816,89.4940,0,U,56103,999,18009,-.24889924E-4,-.947E-5,0
STARLINK-6062,2023-046M,2026-07-05T13:49:27.756480,15.27583907,.00016454,43.0018,215.5461,282.3341,77.7327,0,U,56104,999,18006,-.33591443E-4,-.1187E-4,0
STARLINK-6066,2023-046N,2026-07-06T01:40:22.747008,15.27600872,.00016755,42.9989,213.2213,254.4678,105.5989,0,U,56105,999,18013,.90263775E-3,.24676E-3,0
STARLINK-6030,2023-046Q,2026-07-06T01:51:29.932128,15.27552020,.00009828,43.0021,213.2810,297.4441,62.6311,0,U,56107,999,18013,-.77753733E-4,-.2399E-4,0
STARLINK-6081,2023-046R,2026-07-06T02:43:04.996128,15.27567912,.00007167,43.0016,212.6869,276.4095,83.6675,0,U,56108,999,18014,-.26066272E-4,-.979E-5,0
STARLINK-6083,2023-046S,2026-07-06T03:20:05.122752,15.27572588,.00021497,43.0045,212.8837,287.3128,72.7489,0,U,56109,999,18014,-.25484522E-4,-.964E-5,0
STARLINK-6082,2023-046T,2026-07-06T03:10:50.507328,15.27565363,.00013085,43.0016,212.8297,275.4835,84.5867,0,U,56110,999,18014,-.36893894E-4,-.1277E-4,0
STARLINK-6084,2023-046U,2026-07-05T13:34:52.404384,15.27575623,.00011357,43.0012,216.3099,277.6412,82.4311,0,U,56111,999,18005,.713483E-6,-.242E-5,0
STARLINK-6080,2023-046V,2026-07-05T13:23:46.829760,15.27576381,.00013222,43.0007,216.2655,277.3395,82.7306,0,U,56112,999,18005,.16295742E-4,.186E-5,0
STARLINK-6113,2023-046W,2026-07-06T03:47:37.700736,15.27562041,.00016973,43.0015,212.1683,264.7987,95.2671,0,U,56113,999,18015,.58412268E-4,.1345E-4,0
STARLINK-6101,2023-046Y,2026-07-06T01:39:13.998528,15.27575472,.00019268,43.0016,209.8067,281.1525,78.9110,0,U,56115,999,18017,.659519E-5,-.81E-6,0
STARLINK-6114,2023-046Z,2026-07-06T02:02:35.085984,15.27568506,.00017742,43.0013,213.3390,267.1758,92.8890,0,U,56116,999,18013,.687091E-5,-.73E-6,0
STARLINK-6107,2023-046AA,2026-07-06T01:42:57.549024,15.27571555,.00003925,42.9999,198.5658,273.5333,86.5474,0,U,56117,999,18030,.25159902E-4,.431E-5,0
STARLINK-6091,2023-046AC,2026-07-06T02:03:17.867808,15.27579147,.0001628,43.0026,198.6628,280.9229,79.1440,0,U,56119,999,18030,.1052517E-4,.27E-6,0
